<?xml version="1.0" encoding="UTF-8"?>
<gpx creator="StravaGPX" version="1.1" xmlns="http://www.topografix.com/GPX/1/1" xmlns:xsi="http://www.w3.org/2001/XMLSchema-instance" xsi:schemaLocation="http://www.topografix.com/GPX/1/1 http://www.topografix.com/GPX/1/1/gpx.xsd">
 <metadata>
  <name>breaking ankles on the Appian Way</name>
  <author>
   <name>Lauren Zary</name>
   <link href="https://www.strava.com/athletes/73342440"/>
  </author>
  <copyright author="OpenStreetMap contributors">
   <year>2020</year>
   <license>https://www.openstreetmap.org/copyright</license>
  </copyright>
  <link href="https://www.strava.com/routes/3519505225411091950"/>
 </metadata>
 <trk>
  <name>breaking ankles on the Appian Way</name>
  <link href="https://www.strava.com/routes/3519505225411091950"/>
  <type>running</type>
  <trkseg>
   <trkpt lat="41.89913000000001" lon="12.454070000000002">
    <ele>35.39</ele>
   </trkpt>
   <trkpt lat="41.899150000000006" lon="12.454070000000002">
    <ele>35.36</ele>
   </trkpt>
   <trkpt lat="41.89916" lon="12.454160000000002">
    <ele>36.36</ele>
   </trkpt>
   <trkpt lat="41.898950000000006" lon="12.454500000000001">
    <ele>35.980000000000004</ele>
   </trkpt>
   <trkpt lat="41.898860000000006" lon="12.454670000000002">
    <ele>35.67</ele>
   </trkpt>
   <trkpt lat="41.89887" lon="12.454920000000001">
    <ele>34.88</ele>
   </trkpt>
   <trkpt lat="41.898950000000006" lon="12.455020000000001">
    <ele>34.88</ele>
   </trkpt>
   <trkpt lat="41.89925" lon="12.45527">
    <ele>34.190000000000005</ele>
   </trkpt>
   <trkpt lat="41.89925" lon="12.455540000000001">
    <ele>34.71</ele>
   </trkpt>
   <trkpt lat="41.899280000000005" lon="12.455750000000002">
    <ele>34.980000000000004</ele>
   </trkpt>
   <trkpt lat="41.899370000000005" lon="12.45587">
    <ele>34.53</ele>
   </trkpt>
   <trkpt lat="41.89960000000001" lon="12.455950000000001">
    <ele>33.36</ele>
   </trkpt>
   <trkpt lat="41.899770000000004" lon="12.455910000000001">
    <ele>32.89</ele>
   </trkpt>
   <trkpt lat="41.89988" lon="12.455940000000002">
    <ele>32.690000000000005</ele>
   </trkpt>
   <trkpt lat="41.89999" lon="12.456010000000001">
    <ele>32.34</ele>
   </trkpt>
   <trkpt lat="41.900270000000006" lon="12.456000000000001">
    <ele>31.78</ele>
   </trkpt>
   <trkpt lat="41.90028" lon="12.45631">
    <ele>30.740000000000002</ele>
   </trkpt>
   <trkpt lat="41.90026" lon="12.45673">
    <ele>30.590000000000003</ele>
   </trkpt>
   <trkpt lat="41.90005667683352" lon="12.457813340311997">
    <ele>29.810000000000002</ele>
   </trkpt>
   <trkpt lat="41.899853343485205" lon="12.458896673725055">
    <ele>27.000000000000004</ele>
   </trkpt>
   <trkpt lat="41.89965" lon="12.459980000000002">
    <ele>28.46</ele>
   </trkpt>
   <trkpt lat="41.89959" lon="12.46105">
    <ele>27.770000000000003</ele>
   </trkpt>
   <trkpt lat="41.89963" lon="12.4617">
    <ele>26.67</ele>
   </trkpt>
   <trkpt lat="41.89969000000001" lon="12.462150000000001">
    <ele>26.51</ele>
   </trkpt>
   <trkpt lat="41.899730000000005" lon="12.46235">
    <ele>26.29</ele>
   </trkpt>
   <trkpt lat="41.89963" lon="12.46236">
    <ele>26.29</ele>
   </trkpt>
   <trkpt lat="41.89972" lon="12.46278">
    <ele>22.98</ele>
   </trkpt>
   <trkpt lat="41.89975000201097" lon="12.46345999979751">
    <ele>24.630000000000003</ele>
   </trkpt>
   <trkpt lat="41.89978000000001" lon="12.46414">
    <ele>24.76</ele>
   </trkpt>
   <trkpt lat="41.899710000000006" lon="12.46413">
    <ele>24.290000000000003</ele>
   </trkpt>
   <trkpt lat="41.89927" lon="12.464210000000001">
    <ele>23.650000000000002</ele>
   </trkpt>
   <trkpt lat="41.89909" lon="12.46432">
    <ele>23.430000000000003</ele>
   </trkpt>
   <trkpt lat="41.89830500129368" lon="12.46486500669567">
    <ele>23.380000000000003</ele>
   </trkpt>
   <trkpt lat="41.89752" lon="12.46541">
    <ele>23.48</ele>
   </trkpt>
   <trkpt lat="41.89757" lon="12.465510000000002">
    <ele>23.89</ele>
   </trkpt>
   <trkpt lat="41.896930000000005" lon="12.46597">
    <ele>24.05</ele>
   </trkpt>
   <trkpt lat="41.896710000000006" lon="12.4662">
    <ele>24.05</ele>
   </trkpt>
   <trkpt lat="41.896170002192164" lon="12.466905005913679">
    <ele>24.17</ele>
   </trkpt>
   <trkpt lat="41.895630000000004" lon="12.46761">
    <ele>24.0</ele>
   </trkpt>
   <trkpt lat="41.89521000116626" lon="12.468140003551204">
    <ele>23.98</ele>
   </trkpt>
   <trkpt lat="41.89479" lon="12.468670000000001">
    <ele>23.69</ele>
   </trkpt>
   <trkpt lat="41.89444" lon="12.46907">
    <ele>23.630000000000003</ele>
   </trkpt>
   <trkpt lat="41.894110000000005" lon="12.469500000000002">
    <ele>23.71</ele>
   </trkpt>
   <trkpt lat="41.893785000691686" lon="12.469945002493384">
    <ele>23.770000000000003</ele>
   </trkpt>
   <trkpt lat="41.893460000000005" lon="12.470390000000002">
    <ele>23.8</ele>
   </trkpt>
   <trkpt lat="41.89314" lon="12.4708">
    <ele>23.87</ele>
   </trkpt>
   <trkpt lat="41.89293000000001" lon="12.47103">
    <ele>23.57</ele>
   </trkpt>
   <trkpt lat="41.892680000000006" lon="12.471380000000002">
    <ele>23.73</ele>
   </trkpt>
   <trkpt lat="41.89233" lon="12.471850000000002">
    <ele>24.16</ele>
   </trkpt>
   <trkpt lat="41.892120000000006" lon="12.472190000000001">
    <ele>24.110000000000003</ele>
   </trkpt>
   <trkpt lat="41.89197" lon="12.4725">
    <ele>24.110000000000003</ele>
   </trkpt>
   <trkpt lat="41.891890000000004" lon="12.472710000000001">
    <ele>24.200000000000003</ele>
   </trkpt>
   <trkpt lat="41.89173" lon="12.47343">
    <ele>24.450000000000003</ele>
   </trkpt>
   <trkpt lat="41.89171" lon="12.47389">
    <ele>24.51</ele>
   </trkpt>
   <trkpt lat="41.891760000000005" lon="12.474800000000002">
    <ele>24.470000000000002</ele>
   </trkpt>
   <trkpt lat="41.8917" lon="12.47479">
    <ele>24.270000000000003</ele>
   </trkpt>
   <trkpt lat="41.89175500312628" lon="12.475639999149072">
    <ele>23.450000000000003</ele>
   </trkpt>
   <trkpt lat="41.89181000000001" lon="12.476490000000002">
    <ele>23.03</ele>
   </trkpt>
   <trkpt lat="41.8918" lon="12.476930000000001">
    <ele>22.9</ele>
   </trkpt>
   <trkpt lat="41.89177" lon="12.477150000000002">
    <ele>22.9</ele>
   </trkpt>
   <trkpt lat="41.891600000000004" lon="12.47779">
    <ele>22.63</ele>
   </trkpt>
   <trkpt lat="41.89148" lon="12.478200000000001">
    <ele>22.78</ele>
   </trkpt>
   <trkpt lat="41.891310000000004" lon="12.478510000000002">
    <ele>22.97</ele>
   </trkpt>
   <trkpt lat="41.89094" lon="12.479000000000001">
    <ele>23.19</ele>
   </trkpt>
   <trkpt lat="41.89076" lon="12.479180000000001">
    <ele>23.26</ele>
   </trkpt>
   <trkpt lat="41.890370000000004" lon="12.47957">
    <ele>23.250000000000004</ele>
   </trkpt>
   <trkpt lat="41.89011" lon="12.47976">
    <ele>23.31</ele>
   </trkpt>
   <trkpt lat="41.889570000000006" lon="12.480070000000001">
    <ele>23.39</ele>
   </trkpt>
   <trkpt lat="41.88926" lon="12.48019">
    <ele>23.58</ele>
   </trkpt>
   <trkpt lat="41.889190000000006" lon="12.480170000000001">
    <ele>23.58</ele>
   </trkpt>
   <trkpt lat="41.889030000000005" lon="12.480210000000001">
    <ele>24.07</ele>
   </trkpt>
   <trkpt lat="41.88904" lon="12.48032">
    <ele>24.330000000000002</ele>
   </trkpt>
   <trkpt lat="41.88899000000001" lon="12.48033">
    <ele>24.6</ele>
   </trkpt>
   <trkpt lat="41.888980000000004" lon="12.480400000000001">
    <ele>24.6</ele>
   </trkpt>
   <trkpt lat="41.88864" lon="12.480450000000001">
    <ele>24.42</ele>
   </trkpt>
   <trkpt lat="41.888560000000005" lon="12.480540000000001">
    <ele>24.270000000000003</ele>
   </trkpt>
   <trkpt lat="41.88846" lon="12.480730000000001">
    <ele>23.200000000000003</ele>
   </trkpt>
   <trkpt lat="41.88839" lon="12.48079">
    <ele>22.47</ele>
   </trkpt>
   <trkpt lat="41.888220000000004" lon="12.48089">
    <ele>21.94</ele>
   </trkpt>
   <trkpt lat="41.88812" lon="12.481000000000002">
    <ele>21.78</ele>
   </trkpt>
   <trkpt lat="41.88801" lon="12.48117">
    <ele>21.910000000000004</ele>
   </trkpt>
   <trkpt lat="41.88778000000001" lon="12.48108">
    <ele>22.04</ele>
   </trkpt>
   <trkpt lat="41.887660000000004" lon="12.48145">
    <ele>23.57</ele>
   </trkpt>
   <trkpt lat="41.88741" lon="12.481950000000001">
    <ele>25.67</ele>
   </trkpt>
   <trkpt lat="41.88691500173499" lon="12.482595005088168">
    <ele>28.630000000000003</ele>
   </trkpt>
   <trkpt lat="41.88642" lon="12.48324">
    <ele>32.39</ele>
   </trkpt>
   <trkpt lat="41.886210000000005" lon="12.483540000000001">
    <ele>33.18</ele>
   </trkpt>
   <trkpt lat="41.88604" lon="12.48375">
    <ele>34.78</ele>
   </trkpt>
   <trkpt lat="41.885780000000004" lon="12.48413">
    <ele>36.33</ele>
   </trkpt>
   <trkpt lat="41.88564" lon="12.484280000000002">
    <ele>36.72</ele>
   </trkpt>
   <trkpt lat="41.885580000000004" lon="12.484240000000002">
    <ele>37.24</ele>
   </trkpt>
   <trkpt lat="41.8855" lon="12.484250000000001">
    <ele>37.31</ele>
   </trkpt>
   <trkpt lat="41.88543000000001" lon="12.484140000000002">
    <ele>37.470000000000006</ele>
   </trkpt>
   <trkpt lat="41.88539" lon="12.484020000000001">
    <ele>37.470000000000006</ele>
   </trkpt>
   <trkpt lat="41.88523" lon="12.484060000000001">
    <ele>37.45</ele>
   </trkpt>
   <trkpt lat="41.88512" lon="12.484160000000001">
    <ele>37.470000000000006</ele>
   </trkpt>
   <trkpt lat="41.88505000000001" lon="12.48431">
    <ele>37.50000000000001</ele>
   </trkpt>
   <trkpt lat="41.88499" lon="12.4846">
    <ele>37.59</ele>
   </trkpt>
   <trkpt lat="41.885160000000006" lon="12.48487">
    <ele>36.980000000000004</ele>
   </trkpt>
   <trkpt lat="41.88512" lon="12.48497">
    <ele>36.65</ele>
   </trkpt>
   <trkpt lat="41.88515" lon="12.48506">
    <ele>36.61</ele>
   </trkpt>
   <trkpt lat="41.885310000000004" lon="12.48526">
    <ele>36.27</ele>
   </trkpt>
   <trkpt lat="41.88480000332238" lon="12.486125006774238">
    <ele>32.53</ele>
   </trkpt>
   <trkpt lat="41.88429" lon="12.48699">
    <ele>29.5</ele>
   </trkpt>
   <trkpt lat="41.88411000000001" lon="12.487390000000001">
    <ele>28.690000000000005</ele>
   </trkpt>
   <trkpt lat="41.884060000000005" lon="12.487530000000001">
    <ele>28.35</ele>
   </trkpt>
   <trkpt lat="41.88402000000001" lon="12.487940000000002">
    <ele>27.82</ele>
   </trkpt>
   <trkpt lat="41.88409" lon="12.48831">
    <ele>27.46</ele>
   </trkpt>
   <trkpt lat="41.884190000000004" lon="12.48854">
    <ele>27.650000000000002</ele>
   </trkpt>
   <trkpt lat="41.88394" lon="12.48891">
    <ele>27.720000000000002</ele>
   </trkpt>
   <trkpt lat="41.883970000000005" lon="12.488980000000002">
    <ele>27.680000000000003</ele>
   </trkpt>
   <trkpt lat="41.88393000000001" lon="12.489080000000001">
    <ele>27.630000000000003</ele>
   </trkpt>
   <trkpt lat="41.883660000000006" lon="12.489450000000001">
    <ele>27.48</ele>
   </trkpt>
   <trkpt lat="41.883590000000005" lon="12.48962">
    <ele>27.46</ele>
   </trkpt>
   <trkpt lat="41.883300000000006" lon="12.48999">
    <ele>27.28</ele>
   </trkpt>
   <trkpt lat="41.883230000000005" lon="12.49004">
    <ele>27.180000000000003</ele>
   </trkpt>
   <trkpt lat="41.88324" lon="12.490100000000002">
    <ele>27.180000000000003</ele>
   </trkpt>
   <trkpt lat="41.88288" lon="12.490390000000001">
    <ele>27.070000000000004</ele>
   </trkpt>
   <trkpt lat="41.882810000000006" lon="12.490430000000002">
    <ele>27.270000000000003</ele>
   </trkpt>
   <trkpt lat="41.88262" lon="12.49046">
    <ele>27.270000000000003</ele>
   </trkpt>
   <trkpt lat="41.88246" lon="12.490430000000002">
    <ele>27.860000000000003</ele>
   </trkpt>
   <trkpt lat="41.881930000000004" lon="12.49018">
    <ele>29.990000000000002</ele>
   </trkpt>
   <trkpt lat="41.88168" lon="12.490110000000001">
    <ele>32.53</ele>
   </trkpt>
   <trkpt lat="41.88138" lon="12.49009">
    <ele>33.68</ele>
   </trkpt>
   <trkpt lat="41.88080999977016" lon="12.490175000797162">
    <ele>37.17</ele>
   </trkpt>
   <trkpt lat="41.88024" lon="12.490260000000001">
    <ele>39.870000000000005</ele>
   </trkpt>
   <trkpt lat="41.88009" lon="12.490260000000001">
    <ele>40.1</ele>
   </trkpt>
   <trkpt lat="41.879690000000004" lon="12.490070000000001">
    <ele>42.02</ele>
   </trkpt>
   <trkpt lat="41.87921" lon="12.489730000000002">
    <ele>45.480000000000004</ele>
   </trkpt>
   <trkpt lat="41.87904" lon="12.489580000000002">
    <ele>45.88</ele>
   </trkpt>
   <trkpt lat="41.879020000000004" lon="12.489500000000001">
    <ele>46.09</ele>
   </trkpt>
   <trkpt lat="41.87897" lon="12.489450000000001">
    <ele>46.09</ele>
   </trkpt>
   <trkpt lat="41.878910000000005" lon="12.489450000000001">
    <ele>46.46</ele>
   </trkpt>
   <trkpt lat="41.878870000000006" lon="12.489500000000001">
    <ele>46.46</ele>
   </trkpt>
   <trkpt lat="41.878840000000004" lon="12.489590000000002">
    <ele>46.53</ele>
   </trkpt>
   <trkpt lat="41.878750000000004" lon="12.48972">
    <ele>46.57000000000001</ele>
   </trkpt>
   <trkpt lat="41.878310000000006" lon="12.490520000000002">
    <ele>46.61000000000001</ele>
   </trkpt>
   <trkpt lat="41.877840000000006" lon="12.491280000000001">
    <ele>44.49</ele>
   </trkpt>
   <trkpt lat="41.87718" lon="12.492040000000001">
    <ele>40.59</ele>
   </trkpt>
   <trkpt lat="41.876940000000005" lon="12.492360000000001">
    <ele>38.82</ele>
   </trkpt>
   <trkpt lat="41.876520000000006" lon="12.493200000000002">
    <ele>38.53</ele>
   </trkpt>
   <trkpt lat="41.8760000023241" lon="12.49393500600715">
    <ele>40.150000000000006</ele>
   </trkpt>
   <trkpt lat="41.87548" lon="12.494670000000001">
    <ele>41.120000000000005</ele>
   </trkpt>
   <trkpt lat="41.875510000000006" lon="12.494720000000001">
    <ele>41.5</ele>
   </trkpt>
   <trkpt lat="41.87516500102839" lon="12.495210002663505">
    <ele>41.730000000000004</ele>
   </trkpt>
   <trkpt lat="41.87482000000001" lon="12.495700000000001">
    <ele>41.27</ele>
   </trkpt>
   <trkpt lat="41.87482000000001" lon="12.495750000000001">
    <ele>41.27</ele>
   </trkpt>
   <trkpt lat="41.87505" lon="12.496120000000001">
    <ele>40.61</ele>
   </trkpt>
   <trkpt lat="41.874990000000004" lon="12.49618">
    <ele>41.95</ele>
   </trkpt>
   <trkpt lat="41.87494" lon="12.496340000000002">
    <ele>42.03</ele>
   </trkpt>
   <trkpt lat="41.874930000000006" lon="12.49646">
    <ele>42.190000000000005</ele>
   </trkpt>
   <trkpt lat="41.874840000000006" lon="12.496690000000001">
    <ele>42.72</ele>
   </trkpt>
   <trkpt lat="41.87485" lon="12.496820000000001">
    <ele>43.28000000000001</ele>
   </trkpt>
   <trkpt lat="41.87433" lon="12.496910000000002">
    <ele>43.06</ele>
   </trkpt>
   <trkpt lat="41.87398" lon="12.49693">
    <ele>43.120000000000005</ele>
   </trkpt>
   <trkpt lat="41.87364" lon="12.496920000000001">
    <ele>42.910000000000004</ele>
   </trkpt>
   <trkpt lat="41.87315" lon="12.49688">
    <ele>42.330000000000005</ele>
   </trkpt>
   <trkpt lat="41.872840000000004" lon="12.496870000000001">
    <ele>41.150000000000006</ele>
   </trkpt>
   <trkpt lat="41.87234499989239" lon="12.496819999600827">
    <ele>40.17</ele>
   </trkpt>
   <trkpt lat="41.87185" lon="12.496770000000001">
    <ele>37.86000000000001</ele>
   </trkpt>
   <trkpt lat="41.87153" lon="12.49675">
    <ele>37.01</ele>
   </trkpt>
   <trkpt lat="41.871390000000005" lon="12.496720000000002">
    <ele>36.99</ele>
   </trkpt>
   <trkpt lat="41.87136" lon="12.4967">
    <ele>36.99</ele>
   </trkpt>
   <trkpt lat="41.87122" lon="12.496680000000001">
    <ele>36.87</ele>
   </trkpt>
   <trkpt lat="41.87115" lon="12.496720000000002">
    <ele>36.81</ele>
   </trkpt>
   <trkpt lat="41.871050000000004" lon="12.49671">
    <ele>36.68000000000001</ele>
   </trkpt>
   <trkpt lat="41.870990000000006" lon="12.49665">
    <ele>36.52</ele>
   </trkpt>
   <trkpt lat="41.870610000000006" lon="12.4966">
    <ele>35.59</ele>
   </trkpt>
   <trkpt lat="41.87033" lon="12.496590000000001">
    <ele>35.34</ele>
   </trkpt>
   <trkpt lat="41.86984" lon="12.496670000000002">
    <ele>32.620000000000005</ele>
   </trkpt>
   <trkpt lat="41.8695" lon="12.49665">
    <ele>29.630000000000003</ele>
   </trkpt>
   <trkpt lat="41.869400000000006" lon="12.496670000000002">
    <ele>29.380000000000003</ele>
   </trkpt>
   <trkpt lat="41.86898" lon="12.496630000000001">
    <ele>27.57</ele>
   </trkpt>
   <trkpt lat="41.868680000000005" lon="12.496620000000002">
    <ele>26.910000000000004</ele>
   </trkpt>
   <trkpt lat="41.86820999998235" lon="12.496640000147865">
    <ele>26.18</ele>
   </trkpt>
   <trkpt lat="41.867740000000005" lon="12.49666">
    <ele>26.13</ele>
   </trkpt>
   <trkpt lat="41.867450000000005" lon="12.496770000000001">
    <ele>26.070000000000004</ele>
   </trkpt>
   <trkpt lat="41.866980000000005" lon="12.49684">
    <ele>26.150000000000002</ele>
   </trkpt>
   <trkpt lat="41.866980000000005" lon="12.49689">
    <ele>26.19</ele>
   </trkpt>
   <trkpt lat="41.86699" lon="12.497160000000001">
    <ele>26.18</ele>
   </trkpt>
   <trkpt lat="41.866960000000006" lon="12.497950000000001">
    <ele>26.050000000000004</ele>
   </trkpt>
   <trkpt lat="41.866950002774125" lon="12.498750000262747">
    <ele>26.19</ele>
   </trkpt>
   <trkpt lat="41.86694000000001" lon="12.499550000000001">
    <ele>25.800000000000004</ele>
   </trkpt>
   <trkpt lat="41.866980000000005" lon="12.499880000000001">
    <ele>25.540000000000003</ele>
   </trkpt>
   <trkpt lat="41.86699" lon="12.500150000000001">
    <ele>25.53</ele>
   </trkpt>
   <trkpt lat="41.867070000000005" lon="12.50069">
    <ele>26.490000000000002</ele>
   </trkpt>
   <trkpt lat="41.86704" lon="12.501100000000001">
    <ele>26.96</ele>
   </trkpt>
   <trkpt lat="41.867020000000004" lon="12.50192">
    <ele>25.84</ele>
   </trkpt>
   <trkpt lat="41.86699" lon="12.502130000000001">
    <ele>25.34</ele>
   </trkpt>
   <trkpt lat="41.86704" lon="12.50267">
    <ele>22.060000000000002</ele>
   </trkpt>
   <trkpt lat="41.8671" lon="12.502960000000002">
    <ele>21.01</ele>
   </trkpt>
   <trkpt lat="41.86695" lon="12.503060000000001">
    <ele>21.32</ele>
   </trkpt>
   <trkpt lat="41.866440000000004" lon="12.503480000000001">
    <ele>22.11</ele>
   </trkpt>
   <trkpt lat="41.86627" lon="12.50365">
    <ele>23.05</ele>
   </trkpt>
   <trkpt lat="41.86568666832575" lon="12.504096674872187">
    <ele>27.82</ele>
   </trkpt>
   <trkpt lat="41.86510333492082" lon="12.504543341593568">
    <ele>33.85</ele>
   </trkpt>
   <trkpt lat="41.864520000000006" lon="12.504990000000001">
    <ele>38.32</ele>
   </trkpt>
   <trkpt lat="41.863910000000004" lon="12.505400000000002">
    <ele>40.25</ele>
   </trkpt>
   <trkpt lat="41.86375" lon="12.505540000000002">
    <ele>41.43</ele>
   </trkpt>
   <trkpt lat="41.863530000000004" lon="12.505770000000002">
    <ele>41.81000000000001</ele>
   </trkpt>
   <trkpt lat="41.862920002212014" lon="12.506500007083112">
    <ele>43.050000000000004</ele>
   </trkpt>
   <trkpt lat="41.86231" lon="12.507230000000002">
    <ele>44.95</ele>
   </trkpt>
   <trkpt lat="41.86190500095629" lon="12.507695002924002">
    <ele>46.44</ele>
   </trkpt>
   <trkpt lat="41.86150000000001" lon="12.50816">
    <ele>48.17</ele>
   </trkpt>
   <trkpt lat="41.86113000098268" lon="12.508655002971276">
    <ele>48.160000000000004</ele>
   </trkpt>
   <trkpt lat="41.860760000000006" lon="12.509150000000002">
    <ele>48.190000000000005</ele>
   </trkpt>
   <trkpt lat="41.86019001559938" lon="12.509924327126715">
    <ele>48.77</ele>
   </trkpt>
   <trkpt lat="41.85962002599789" lon="12.510698640449633">
    <ele>49.99000000000001</ele>
   </trkpt>
   <trkpt lat="41.85905003119573" lon="12.511472939969144">
    <ele>51.10000000000001</ele>
   </trkpt>
   <trkpt lat="41.858480031193125" lon="12.512247225685648">
    <ele>51.56</ele>
   </trkpt>
   <trkpt lat="41.857910025990236" lon="12.513021497599544">
    <ele>51.870000000000005</ele>
   </trkpt>
   <trkpt lat="41.8573400155873" lon="12.513795755711229">
    <ele>52.18</ele>
   </trkpt>
   <trkpt lat="41.856770000000004" lon="12.51457">
    <ele>52.410000000000004</ele>
   </trkpt>
   <trkpt lat="41.85663" lon="12.514750000000001">
    <ele>52.31</ele>
   </trkpt>
   <trkpt lat="41.856300000000005" lon="12.51515">
    <ele>51.03000000000001</ele>
   </trkpt>
   <trkpt lat="41.85625" lon="12.515260000000001">
    <ele>50.46</ele>
   </trkpt>
   <trkpt lat="41.85624000000001" lon="12.515400000000001">
    <ele>50.46</ele>
   </trkpt>
   <trkpt lat="41.856320000000004" lon="12.515880000000001">
    <ele>46.05</ele>
   </trkpt>
   <trkpt lat="41.855700010580236" lon="12.516578367175798">
    <ele>42.690000000000005</ele>
   </trkpt>
   <trkpt lat="41.855080016930046" lon="12.517276720811862">
    <ele>40.92</ele>
   </trkpt>
   <trkpt lat="41.85446001904956" lon="12.517975060908665">
    <ele>40.82</ele>
   </trkpt>
   <trkpt lat="41.853840016938996" lon="12.518673387466668">
    <ele>42.22</ele>
   </trkpt>
   <trkpt lat="41.85322001059852" lon="12.519371700486337">
    <ele>46.13</ele>
   </trkpt>
   <trkpt lat="41.8526" lon="12.52007">
    <ele>50.650000000000006</ele>
   </trkpt>
   <trkpt lat="41.85219500084262" lon="12.520505002730681">
    <ele>56.010000000000005</ele>
   </trkpt>
   <trkpt lat="41.85179" lon="12.520940000000001">
    <ele>58.71</ele>
   </trkpt>
   <trkpt lat="41.851130000000005" lon="12.52172">
    <ele>62.36000000000001</ele>
   </trkpt>
   <trkpt lat="41.850620002808974" lon="12.522290009099182">
    <ele>64.09</ele>
   </trkpt>
   <trkpt lat="41.85011000279971" lon="12.5228600091094">
    <ele>64.64</ele>
   </trkpt>
   <trkpt lat="41.8496" lon="12.523430000000001">
    <ele>65.53</ele>
   </trkpt>
   <trkpt lat="41.849140000000006" lon="12.523930000000002">
    <ele>67.18</ele>
   </trkpt>
   <trkpt lat="41.84848069985852" lon="12.52466944000406">
    <ele>68.68</ele>
   </trkpt>
   <trkpt lat="41.8478213949745" lon="12.525408864766966">
    <ele>70.27</ele>
   </trkpt>
   <trkpt lat="41.84716208534815" lon="12.526148274289284">
    <ele>71.46000000000001</ele>
   </trkpt>
   <trkpt lat="41.84650277097968" lon="12.526887668571568">
    <ele>72.02</ele>
   </trkpt>
   <trkpt lat="41.84584345186929" lon="12.527627047614374">
    <ele>73.15</ele>
   </trkpt>
   <trkpt lat="41.84518412801719" lon="12.52836641141826">
    <ele>73.88</ele>
   </trkpt>
   <trkpt lat="41.84452479942357" lon="12.529105759983787">
    <ele>74.53000000000002</ele>
   </trkpt>
   <trkpt lat="41.84386546608867" lon="12.52984509331151">
    <ele>74.83000000000001</ele>
   </trkpt>
   <trkpt lat="41.843206128012675" lon="12.530584411401982">
    <ele>75.00000000000001</ele>
   </trkpt>
   <trkpt lat="41.842546785195815" lon="12.531323714255766">
    <ele>74.79</ele>
   </trkpt>
   <trkpt lat="41.841887437638256" lon="12.532063001873418">
    <ele>74.35</ele>
   </trkpt>
   <trkpt lat="41.841228085340255" lon="12.532802274255495">
    <ele>74.14000000000001</ele>
   </trkpt>
   <trkpt lat="41.84056872830198" lon="12.533541531402554">
    <ele>74.4</ele>
   </trkpt>
   <trkpt lat="41.83990936652366" lon="12.53428077331515">
    <ele>74.82000000000001</ele>
   </trkpt>
   <trkpt lat="41.83925000000001" lon="12.535020000000001">
    <ele>75.81</ele>
   </trkpt>
   <trkpt lat="41.83990936651817" lon="12.534280773321308">
    <ele>74.82000000000001</ele>
   </trkpt>
   <trkpt lat="41.84056872829649" lon="12.533541531408712">
    <ele>74.4</ele>
   </trkpt>
   <trkpt lat="41.841228085334755" lon="12.532802274261654">
    <ele>74.12</ele>
   </trkpt>
   <trkpt lat="41.841887437632764" lon="12.532063001879578">
    <ele>74.35</ele>
   </trkpt>
   <trkpt lat="41.84254678519032" lon="12.531323714261925">
    <ele>74.79</ele>
   </trkpt>
   <trkpt lat="41.843206128007196" lon="12.530584411408142">
    <ele>75.00000000000001</ele>
   </trkpt>
   <trkpt lat="41.84386546608319" lon="12.529845093317668">
    <ele>74.83000000000001</ele>
   </trkpt>
   <trkpt lat="41.84452479941808" lon="12.529105759989946">
    <ele>74.28000000000002</ele>
   </trkpt>
   <trkpt lat="41.845184128011695" lon="12.528366411424422">
    <ele>73.53000000000002</ele>
   </trkpt>
   <trkpt lat="41.8458434518638" lon="12.527627047620532">
    <ele>73.10000000000001</ele>
   </trkpt>
   <trkpt lat="41.84650277097419" lon="12.526887668577727">
    <ele>72.02</ele>
   </trkpt>
   <trkpt lat="41.84716208534267" lon="12.526148274295446">
    <ele>71.46000000000001</ele>
   </trkpt>
   <trkpt lat="41.84782139496901" lon="12.525408864773128">
    <ele>70.27</ele>
   </trkpt>
   <trkpt lat="41.848480699853035" lon="12.524669440010218">
    <ele>68.68</ele>
   </trkpt>
   <trkpt lat="41.849140000000006" lon="12.523930000000002">
    <ele>66.72</ele>
   </trkpt>
   <trkpt lat="41.8496" lon="12.523430000000001">
    <ele>65.53</ele>
   </trkpt>
   <trkpt lat="41.850110002827385" lon="12.52286000907849">
    <ele>64.64</ele>
   </trkpt>
   <trkpt lat="41.850620002836614" lon="12.52229000906827">
    <ele>63.62000000000001</ele>
   </trkpt>
   <trkpt lat="41.851130000000005" lon="12.52172">
    <ele>62.36000000000001</ele>
   </trkpt>
   <trkpt lat="41.851520000985246" lon="12.521265002672191">
    <ele>60.38</ele>
   </trkpt>
   <trkpt lat="41.851910000000004" lon="12.52081">
    <ele>57.6</ele>
   </trkpt>
   <trkpt lat="41.8519" lon="12.52081">
    <ele>56.440000000000005</ele>
   </trkpt>
   <trkpt lat="41.85122698501696" lon="12.521565968014984">
    <ele>60.32000000000001</ele>
   </trkpt>
   <trkpt lat="41.850553965076934" lon="12.522321920122485">
    <ele>62.42</ele>
   </trkpt>
   <trkpt lat="41.84988094018017" lon="12.52307785632309">
    <ele>65.17</ele>
   </trkpt>
   <trkpt lat="41.84920791032687" lon="12.523833776617398">
    <ele>68.28</ele>
   </trkpt>
   <trkpt lat="41.84853487551726" lon="12.524589681005997">
    <ele>71.28000000000002</ele>
   </trkpt>
   <trkpt lat="41.84786183575157" lon="12.525345569489485">
    <ele>71.81000000000002</ele>
   </trkpt>
   <trkpt lat="41.847188791030014" lon="12.526101442068452">
    <ele>71.23</ele>
   </trkpt>
   <trkpt lat="41.84651574135282" lon="12.526857298743494">
    <ele>69.89</ele>
   </trkpt>
   <trkpt lat="41.84584268672019" lon="12.527613139515203">
    <ele>71.26</ele>
   </trkpt>
   <trkpt lat="41.845169627132364" lon="12.528368964384175">
    <ele>72.08</ele>
   </trkpt>
   <trkpt lat="41.84449656258956" lon="12.529124773351">
    <ele>72.07000000000001</ele>
   </trkpt>
   <trkpt lat="41.843823493092" lon="12.529880566416272">
    <ele>74.43</ele>
   </trkpt>
   <trkpt lat="41.84315041863991" lon="12.530636343580587">
    <ele>75.07000000000001</ele>
   </trkpt>
   <trkpt lat="41.8424773392335" lon="12.531392104844537">
    <ele>76.61000000000001</ele>
   </trkpt>
   <trkpt lat="41.841804254873" lon="12.532147850208712">
    <ele>74.55</ele>
   </trkpt>
   <trkpt lat="41.84113116555862" lon="12.532903579673711">
    <ele>72.25000000000001</ele>
   </trkpt>
   <trkpt lat="41.84045807129058" lon="12.533659293240124">
    <ele>75.06</ele>
   </trkpt>
   <trkpt lat="41.839784972069126" lon="12.534414990908543">
    <ele>78.02000000000001</ele>
   </trkpt>
   <trkpt lat="41.83911186789447" lon="12.535170672679566">
    <ele>78.54</ele>
   </trkpt>
   <trkpt lat="41.83843875876681" lon="12.535926338553782">
    <ele>78.09</ele>
   </trkpt>
   <trkpt lat="41.83776564468639" lon="12.536681988531782">
    <ele>75.35</ele>
   </trkpt>
   <trkpt lat="41.837092525653425" lon="12.537437622614167">
    <ele>77.32</ele>
   </trkpt>
   <trkpt lat="41.836419401668145" lon="12.538193240801524">
    <ele>81.42</ele>
   </trkpt>
   <trkpt lat="41.835746272730766" lon="12.538948843094449">
    <ele>79.30000000000001</ele>
   </trkpt>
   <trkpt lat="41.83507313884149" lon="12.539704429493534">
    <ele>77.63000000000001</ele>
   </trkpt>
   <trkpt lat="41.8344" lon="12.540460000000001">
    <ele>76.38</ele>
   </trkpt>
   <trkpt lat="41.83465" lon="12.540840000000001">
    <ele>78.86</ele>
   </trkpt>
   <trkpt lat="41.834830000000004" lon="12.541">
    <ele>78.41000000000001</ele>
   </trkpt>
   <trkpt lat="41.835" lon="12.541060000000002">
    <ele>78.24000000000001</ele>
   </trkpt>
   <trkpt lat="41.8355" lon="12.54114">
    <ele>77.49</ele>
   </trkpt>
   <trkpt lat="41.83549" lon="12.54114">
    <ele>77.5</ele>
   </trkpt>
   <trkpt lat="41.83636500008586" lon="12.541294997877616">
    <ele>74.95</ele>
   </trkpt>
   <trkpt lat="41.83724" lon="12.541450000000001">
    <ele>73.46000000000001</ele>
   </trkpt>
   <trkpt lat="41.837630000000004" lon="12.54156">
    <ele>73.21000000000001</ele>
   </trkpt>
   <trkpt lat="41.83804500233641" lon="12.540835004602076">
    <ele>69.53</ele>
   </trkpt>
   <trkpt lat="41.838460000000005" lon="12.54011">
    <ele>63.79</ele>
   </trkpt>
   <trkpt lat="41.83881" lon="12.53963">
    <ele>61.190000000000005</ele>
   </trkpt>
   <trkpt lat="41.838950000000004" lon="12.53958">
    <ele>60.49</ele>
   </trkpt>
   <trkpt lat="41.83972333376992" lon="12.539383338060983">
    <ele>58.480000000000004</ele>
   </trkpt>
   <trkpt lat="41.84049666720435" lon="12.539186671368686">
    <ele>57.71</ele>
   </trkpt>
   <trkpt lat="41.84127" lon="12.538990000000002">
    <ele>59.080000000000005</ele>
   </trkpt>
   <trkpt lat="41.841300000000004" lon="12.53897">
    <ele>59.080000000000005</ele>
   </trkpt>
   <trkpt lat="41.84183" lon="12.53814">
    <ele>60.14000000000001</ele>
   </trkpt>
   <trkpt lat="41.84188" lon="12.538110000000001">
    <ele>60.02</ele>
   </trkpt>
   <trkpt lat="41.841950000000004" lon="12.537830000000001">
    <ele>60.02</ele>
   </trkpt>
   <trkpt lat="41.841930000000005" lon="12.537690000000001">
    <ele>60.02</ele>
   </trkpt>
   <trkpt lat="41.841840000000005" lon="12.537560000000001">
    <ele>60.29</ele>
   </trkpt>
   <trkpt lat="41.84183" lon="12.537490000000002">
    <ele>60.29</ele>
   </trkpt>
   <trkpt lat="41.841910000000006" lon="12.537220000000001">
    <ele>60.29</ele>
   </trkpt>
   <trkpt lat="41.84194" lon="12.537020000000002">
    <ele>60.29</ele>
   </trkpt>
   <trkpt lat="41.84192" lon="12.536900000000001">
    <ele>60.29</ele>
   </trkpt>
   <trkpt lat="41.841820000000006" lon="12.536700000000002">
    <ele>60.29</ele>
   </trkpt>
   <trkpt lat="41.841530000000006" lon="12.53625">
    <ele>65.35000000000001</ele>
   </trkpt>
   <trkpt lat="41.841350000000006" lon="12.53607">
    <ele>65.35000000000001</ele>
   </trkpt>
   <trkpt lat="41.84132" lon="12.535860000000001">
    <ele>65.35000000000001</ele>
   </trkpt>
   <trkpt lat="41.84138" lon="12.53574">
    <ele>65.35000000000001</ele>
   </trkpt>
   <trkpt lat="41.841440000000006" lon="12.5357">
    <ele>65.35000000000001</ele>
   </trkpt>
   <trkpt lat="41.8415" lon="12.5357">
    <ele>64.17</ele>
   </trkpt>
   <trkpt lat="41.84158" lon="12.53575">
    <ele>64.17</ele>
   </trkpt>
   <trkpt lat="41.84216000000001" lon="12.535800000000002">
    <ele>60.53000000000001</ele>
   </trkpt>
   <trkpt lat="41.842330000000004" lon="12.535860000000001">
    <ele>58.77</ele>
   </trkpt>
   <trkpt lat="41.842490000000005" lon="12.53588">
    <ele>58.09</ele>
   </trkpt>
   <trkpt lat="41.84261" lon="12.53584">
    <ele>58.0</ele>
   </trkpt>
   <trkpt lat="41.84272" lon="12.535770000000001">
    <ele>58.2</ele>
   </trkpt>
   <trkpt lat="41.84291" lon="12.535480000000002">
    <ele>58.120000000000005</ele>
   </trkpt>
   <trkpt lat="41.84299" lon="12.53545">
    <ele>58.38</ele>
   </trkpt>
   <trkpt lat="41.84324" lon="12.535190000000002">
    <ele>60.2</ele>
   </trkpt>
   <trkpt lat="41.84348000000001" lon="12.534910000000002">
    <ele>62.61</ele>
   </trkpt>
   <trkpt lat="41.843540000000004" lon="12.5348">
    <ele>63.47</ele>
   </trkpt>
   <trkpt lat="41.84385" lon="12.534780000000001">
    <ele>64.23</ele>
   </trkpt>
   <trkpt lat="41.84422" lon="12.534680000000002">
    <ele>64.52000000000001</ele>
   </trkpt>
   <trkpt lat="41.844440000000006" lon="12.534650000000001">
    <ele>64.61</ele>
   </trkpt>
   <trkpt lat="41.84472" lon="12.534580000000002">
    <ele>64.83</ele>
   </trkpt>
   <trkpt lat="41.845310000000005" lon="12.534490000000002">
    <ele>62.58000000000001</ele>
   </trkpt>
   <trkpt lat="41.845490000000005" lon="12.53438">
    <ele>62.49</ele>
   </trkpt>
   <trkpt lat="41.84559" lon="12.534180000000001">
    <ele>62.46000000000001</ele>
   </trkpt>
   <trkpt lat="41.845760000000006" lon="12.534130000000001">
    <ele>61.49</ele>
   </trkpt>
   <trkpt lat="41.845940000000006" lon="12.533790000000002">
    <ele>57.150000000000006</ele>
   </trkpt>
   <trkpt lat="41.846120000000006" lon="12.53381">
    <ele>55.27</ele>
   </trkpt>
   <trkpt lat="41.84667" lon="12.533660000000001">
    <ele>49.800000000000004</ele>
   </trkpt>
   <trkpt lat="41.84675" lon="12.53359">
    <ele>48.63</ele>
   </trkpt>
   <trkpt lat="41.84682" lon="12.533560000000001">
    <ele>48.63</ele>
   </trkpt>
   <trkpt lat="41.84682" lon="12.533570000000001">
    <ele>48.68</ele>
   </trkpt>
   <trkpt lat="41.84741" lon="12.533410000000002">
    <ele>45.93000000000001</ele>
   </trkpt>
   <trkpt lat="41.84769" lon="12.53331">
    <ele>43.27</ele>
   </trkpt>
   <trkpt lat="41.84799" lon="12.533270000000002">
    <ele>41.900000000000006</ele>
   </trkpt>
   <trkpt lat="41.84819" lon="12.533550000000002">
    <ele>42.27</ele>
   </trkpt>
   <trkpt lat="41.84873500696652" lon="12.532817518740847">
    <ele>41.330000000000005</ele>
   </trkpt>
   <trkpt lat="41.84928000927914" lon="12.532085025000995">
    <ele>40.64</ele>
   </trkpt>
   <trkpt lat="41.849825006937735" lon="12.531352518780107">
    <ele>40.61</ele>
   </trkpt>
   <trkpt lat="41.850370000000005" lon="12.53062">
    <ele>41.04</ele>
   </trkpt>
   <trkpt lat="41.8507" lon="12.530170000000002">
    <ele>41.45</ele>
   </trkpt>
   <trkpt lat="41.850930000000005" lon="12.529630000000001">
    <ele>42.56</ele>
   </trkpt>
   <trkpt lat="41.851150000000004" lon="12.528810000000002">
    <ele>44.4</ele>
   </trkpt>
   <trkpt lat="41.8515" lon="12.527880000000001">
    <ele>46.02</ele>
   </trkpt>
   <trkpt lat="41.851600000000005" lon="12.527650000000001">
    <ele>46.53</ele>
   </trkpt>
   <trkpt lat="41.85174000000001" lon="12.52743">
    <ele>47.2</ele>
   </trkpt>
   <trkpt lat="41.851910000000004" lon="12.52725">
    <ele>47.870000000000005</ele>
   </trkpt>
   <trkpt lat="41.85229" lon="12.52701">
    <ele>48.32</ele>
   </trkpt>
   <trkpt lat="41.852430000000005" lon="12.526940000000002">
    <ele>48.410000000000004</ele>
   </trkpt>
   <trkpt lat="41.85297000221501" lon="12.527664993792456">
    <ele>45.040000000000006</ele>
   </trkpt>
   <trkpt lat="41.85351" lon="12.528390000000002">
    <ele>42.47</ele>
   </trkpt>
   <trkpt lat="41.85362000000001" lon="12.52828">
    <ele>41.730000000000004</ele>
   </trkpt>
   <trkpt lat="41.85369" lon="12.528360000000001">
    <ele>41.04</ele>
   </trkpt>
   <trkpt lat="41.85381" lon="12.528450000000001">
    <ele>39.540000000000006</ele>
   </trkpt>
   <trkpt lat="41.85399" lon="12.528530000000002">
    <ele>38.44</ele>
   </trkpt>
   <trkpt lat="41.8541" lon="12.5286">
    <ele>38.040000000000006</ele>
   </trkpt>
   <trkpt lat="41.85428" lon="12.528780000000001">
    <ele>37.040000000000006</ele>
   </trkpt>
   <trkpt lat="41.85448" lon="12.52893">
    <ele>36.50000000000001</ele>
   </trkpt>
   <trkpt lat="41.854710000000004" lon="12.529010000000001">
    <ele>36.120000000000005</ele>
   </trkpt>
   <trkpt lat="41.85499" lon="12.529050000000002">
    <ele>36.27</ele>
   </trkpt>
   <trkpt lat="41.85519" lon="12.52903">
    <ele>36.480000000000004</ele>
   </trkpt>
   <trkpt lat="41.85589" lon="12.52875">
    <ele>35.99</ele>
   </trkpt>
   <trkpt lat="41.85604" lon="12.528760000000002">
    <ele>35.76</ele>
   </trkpt>
   <trkpt lat="41.856260000000006" lon="12.52884">
    <ele>35.49</ele>
   </trkpt>
   <trkpt lat="41.856660000000005" lon="12.528910000000002">
    <ele>35.07</ele>
   </trkpt>
   <trkpt lat="41.856730000000006" lon="12.5289">
    <ele>35.07</ele>
   </trkpt>
   <trkpt lat="41.857060000000004" lon="12.528780000000001">
    <ele>34.870000000000005</ele>
   </trkpt>
   <trkpt lat="41.85734" lon="12.528410000000001">
    <ele>34.34</ele>
   </trkpt>
   <trkpt lat="41.85762500108358" lon="12.527910002229438">
    <ele>35.47</ele>
   </trkpt>
   <trkpt lat="41.857910000000004" lon="12.527410000000001">
    <ele>35.78000000000001</ele>
   </trkpt>
   <trkpt lat="41.858140000000006" lon="12.527040000000001">
    <ele>35.88</ele>
   </trkpt>
   <trkpt lat="41.858250000000005" lon="12.52682">
    <ele>35.230000000000004</ele>
   </trkpt>
   <trkpt lat="41.858340000000005" lon="12.526570000000001">
    <ele>34.64</ele>
   </trkpt>
   <trkpt lat="41.8584" lon="12.5266">
    <ele>33.410000000000004</ele>
   </trkpt>
   <trkpt lat="41.858450000000005" lon="12.52659">
    <ele>33.410000000000004</ele>
   </trkpt>
   <trkpt lat="41.85868000000001" lon="12.526390000000001">
    <ele>28.85</ele>
   </trkpt>
   <trkpt lat="41.85873" lon="12.526370000000002">
    <ele>28.85</ele>
   </trkpt>
   <trkpt lat="41.858920000000005" lon="12.525860000000002">
    <ele>27.39</ele>
   </trkpt>
   <trkpt lat="41.859" lon="12.525490000000001">
    <ele>26.820000000000004</ele>
   </trkpt>
   <trkpt lat="41.85904" lon="12.52542">
    <ele>26.6</ele>
   </trkpt>
   <trkpt lat="41.859080000000006" lon="12.525390000000002">
    <ele>26.6</ele>
   </trkpt>
   <trkpt lat="41.859560000186995" lon="12.525255000982966">
    <ele>25.900000000000002</ele>
   </trkpt>
   <trkpt lat="41.860040000000005" lon="12.525120000000001">
    <ele>25.710000000000004</ele>
   </trkpt>
   <trkpt lat="41.860110000000006" lon="12.525070000000001">
    <ele>25.710000000000004</ele>
   </trkpt>
   <trkpt lat="41.860170000000004" lon="12.524960000000002">
    <ele>25.710000000000004</ele>
   </trkpt>
   <trkpt lat="41.86019" lon="12.524700000000001">
    <ele>25.5</ele>
   </trkpt>
   <trkpt lat="41.860240000000005" lon="12.524500000000002">
    <ele>25.28</ele>
   </trkpt>
   <trkpt lat="41.86039" lon="12.52411">
    <ele>25.0</ele>
   </trkpt>
   <trkpt lat="41.860530000000004" lon="12.523990000000001">
    <ele>24.93</ele>
   </trkpt>
   <trkpt lat="41.8607" lon="12.52372">
    <ele>24.540000000000003</ele>
   </trkpt>
   <trkpt lat="41.8611" lon="12.522900000000002">
    <ele>24.240000000000002</ele>
   </trkpt>
   <trkpt lat="41.86135" lon="12.522340000000002">
    <ele>24.26</ele>
   </trkpt>
   <trkpt lat="41.861810000000006" lon="12.52143">
    <ele>23.990000000000002</ele>
   </trkpt>
   <trkpt lat="41.86204" lon="12.521120000000002">
    <ele>23.880000000000003</ele>
   </trkpt>
   <trkpt lat="41.8626" lon="12.520410000000002">
    <ele>23.900000000000002</ele>
   </trkpt>
   <trkpt lat="41.86278" lon="12.520240000000001">
    <ele>24.21</ele>
   </trkpt>
   <trkpt lat="41.86291000000001" lon="12.520370000000002">
    <ele>24.040000000000003</ele>
   </trkpt>
   <trkpt lat="41.86305" lon="12.520330000000001">
    <ele>23.31</ele>
   </trkpt>
   <trkpt lat="41.863240000000005" lon="12.520220000000002">
    <ele>22.96</ele>
   </trkpt>
   <trkpt lat="41.86357" lon="12.520180000000002">
    <ele>22.81</ele>
   </trkpt>
   <trkpt lat="41.863910000000004" lon="12.519900000000002">
    <ele>22.81</ele>
   </trkpt>
   <trkpt lat="41.86399" lon="12.519860000000001">
    <ele>22.64</ele>
   </trkpt>
   <trkpt lat="41.86412000000001" lon="12.51984">
    <ele>22.580000000000002</ele>
   </trkpt>
   <trkpt lat="41.864380000000004" lon="12.519850000000002">
    <ele>22.56</ele>
   </trkpt>
   <trkpt lat="41.864900000000006" lon="12.519990000000002">
    <ele>22.26</ele>
   </trkpt>
   <trkpt lat="41.865050000000004" lon="12.51992">
    <ele>22.0</ele>
   </trkpt>
   <trkpt lat="41.86515000000001" lon="12.519810000000001">
    <ele>22.02</ele>
   </trkpt>
   <trkpt lat="41.86535000000001" lon="12.519470000000002">
    <ele>21.79</ele>
   </trkpt>
   <trkpt lat="41.86569" lon="12.518770000000002">
    <ele>21.550000000000004</ele>
   </trkpt>
   <trkpt lat="41.866240000000005" lon="12.51786">
    <ele>21.1</ele>
   </trkpt>
   <trkpt lat="41.866530000000004" lon="12.517290000000001">
    <ele>21.0</ele>
   </trkpt>
   <trkpt lat="41.86663" lon="12.517030000000002">
    <ele>21.0</ele>
   </trkpt>
   <trkpt lat="41.86672" lon="12.516670000000001">
    <ele>21.03</ele>
   </trkpt>
   <trkpt lat="41.86694000000001" lon="12.51612">
    <ele>20.91</ele>
   </trkpt>
   <trkpt lat="41.867000000000004" lon="12.516000000000002">
    <ele>20.86</ele>
   </trkpt>
   <trkpt lat="41.86717" lon="12.515680000000001">
    <ele>21.150000000000002</ele>
   </trkpt>
   <trkpt lat="41.867380000000004" lon="12.515410000000001">
    <ele>21.820000000000004</ele>
   </trkpt>
   <trkpt lat="41.86766" lon="12.51481">
    <ele>20.970000000000002</ele>
   </trkpt>
   <trkpt lat="41.867740000000005" lon="12.51457">
    <ele>20.87</ele>
   </trkpt>
   <trkpt lat="41.86795" lon="12.51426">
    <ele>21.2</ele>
   </trkpt>
   <trkpt lat="41.86807" lon="12.514170000000002">
    <ele>21.580000000000002</ele>
   </trkpt>
   <trkpt lat="41.868120000000005" lon="12.51416">
    <ele>21.580000000000002</ele>
   </trkpt>
   <trkpt lat="41.868190000000006" lon="12.514190000000001">
    <ele>21.93</ele>
   </trkpt>
   <trkpt lat="41.868230000000004" lon="12.514180000000001">
    <ele>21.93</ele>
   </trkpt>
   <trkpt lat="41.86838" lon="12.51411">
    <ele>23.430000000000003</ele>
   </trkpt>
   <trkpt lat="41.86854" lon="12.51406">
    <ele>25.560000000000002</ele>
   </trkpt>
   <trkpt lat="41.86867" lon="12.51397">
    <ele>26.88</ele>
   </trkpt>
   <trkpt lat="41.86853000000001" lon="12.513620000000001">
    <ele>27.450000000000003</ele>
   </trkpt>
   <trkpt lat="41.86863" lon="12.512770000000002">
    <ele>26.950000000000003</ele>
   </trkpt>
   <trkpt lat="41.868750000000006" lon="12.512360000000001">
    <ele>26.51</ele>
   </trkpt>
   <trkpt lat="41.8688" lon="12.512070000000001">
    <ele>24.44</ele>
   </trkpt>
   <trkpt lat="41.8688" lon="12.5119">
    <ele>23.75</ele>
   </trkpt>
   <trkpt lat="41.86885" lon="12.511740000000001">
    <ele>23.57</ele>
   </trkpt>
   <trkpt lat="41.868880000000004" lon="12.511700000000001">
    <ele>23.57</ele>
   </trkpt>
   <trkpt lat="41.86907" lon="12.51162">
    <ele>23.110000000000003</ele>
   </trkpt>
   <trkpt lat="41.869110000000006" lon="12.51157">
    <ele>23.110000000000003</ele>
   </trkpt>
   <trkpt lat="41.869170000000004" lon="12.510990000000001">
    <ele>24.270000000000003</ele>
   </trkpt>
   <trkpt lat="41.8693" lon="12.51068">
    <ele>26.060000000000002</ele>
   </trkpt>
   <trkpt lat="41.86937" lon="12.510580000000001">
    <ele>27.040000000000003</ele>
   </trkpt>
   <trkpt lat="41.869490000000006" lon="12.510480000000001">
    <ele>29.740000000000002</ele>
   </trkpt>
   <trkpt lat="41.869550000000004" lon="12.510470000000002">
    <ele>30.250000000000004</ele>
   </trkpt>
   <trkpt lat="41.86985000000001" lon="12.510580000000001">
    <ele>33.160000000000004</ele>
   </trkpt>
   <trkpt lat="41.869980000000005" lon="12.510580000000001">
    <ele>35.24</ele>
   </trkpt>
   <trkpt lat="41.870140000000006" lon="12.510370000000002">
    <ele>36.58</ele>
   </trkpt>
   <trkpt lat="41.87022" lon="12.510290000000001">
    <ele>37.78</ele>
   </trkpt>
   <trkpt lat="41.87032000000001" lon="12.51027">
    <ele>38.78</ele>
   </trkpt>
   <trkpt lat="41.870760000000004" lon="12.51035">
    <ele>41.650000000000006</ele>
   </trkpt>
   <trkpt lat="41.87095" lon="12.51041">
    <ele>41.92</ele>
   </trkpt>
   <trkpt lat="41.871100000000006" lon="12.510430000000001">
    <ele>42.49000000000001</ele>
   </trkpt>
   <trkpt lat="41.87126000000001" lon="12.51041">
    <ele>42.690000000000005</ele>
   </trkpt>
   <trkpt lat="41.871390000000005" lon="12.510440000000001">
    <ele>42.75</ele>
   </trkpt>
   <trkpt lat="41.871340000000004" lon="12.510290000000001">
    <ele>42.54</ele>
   </trkpt>
   <trkpt lat="41.87136" lon="12.510110000000001">
    <ele>41.89</ele>
   </trkpt>
   <trkpt lat="41.871320000000004" lon="12.50965">
    <ele>41.38</ele>
   </trkpt>
   <trkpt lat="41.87136" lon="12.510110000000001">
    <ele>41.89</ele>
   </trkpt>
   <trkpt lat="41.871340000000004" lon="12.510290000000001">
    <ele>42.54</ele>
   </trkpt>
   <trkpt lat="41.871390000000005" lon="12.510440000000001">
    <ele>42.75</ele>
   </trkpt>
   <trkpt lat="41.87145" lon="12.51055">
    <ele>42.760000000000005</ele>
   </trkpt>
   <trkpt lat="41.871460000000006" lon="12.510720000000001">
    <ele>42.760000000000005</ele>
   </trkpt>
   <trkpt lat="41.87154" lon="12.510720000000001">
    <ele>42.79</ele>
   </trkpt>
   <trkpt lat="41.87156" lon="12.510660000000001">
    <ele>42.79</ele>
   </trkpt>
   <trkpt lat="41.87163" lon="12.510620000000001">
    <ele>43.18</ele>
   </trkpt>
   <trkpt lat="41.87223" lon="12.51059">
    <ele>44.83</ele>
   </trkpt>
   <trkpt lat="41.873090000000005" lon="12.51045">
    <ele>47.66</ele>
   </trkpt>
   <trkpt lat="41.873430000000006" lon="12.510440000000001">
    <ele>48.42</ele>
   </trkpt>
   <trkpt lat="41.873720000000006" lon="12.510470000000002">
    <ele>48.77</ele>
   </trkpt>
   <trkpt lat="41.87395" lon="12.510530000000001">
    <ele>49.870000000000005</ele>
   </trkpt>
   <trkpt lat="41.87408000197686" lon="12.509860001209129">
    <ele>48.7</ele>
   </trkpt>
   <trkpt lat="41.874210000000005" lon="12.50919">
    <ele>47.900000000000006</ele>
   </trkpt>
   <trkpt lat="41.874300000000005" lon="12.508560000000001">
    <ele>47.720000000000006</ele>
   </trkpt>
   <trkpt lat="41.87429" lon="12.50833">
    <ele>47.370000000000005</ele>
   </trkpt>
   <trkpt lat="41.87443500254334" lon="12.507565001709118">
    <ele>47.02</ele>
   </trkpt>
   <trkpt lat="41.87458" lon="12.5068">
    <ele>46.50000000000001</ele>
   </trkpt>
   <trkpt lat="41.874590000000005" lon="12.506570000000002">
    <ele>46.67</ele>
   </trkpt>
   <trkpt lat="41.87467" lon="12.506010000000002">
    <ele>46.55</ele>
   </trkpt>
   <trkpt lat="41.875190003743995" lon="12.505085007467514">
    <ele>46.36000000000001</ele>
   </trkpt>
   <trkpt lat="41.875710000000005" lon="12.50416">
    <ele>46.62</ele>
   </trkpt>
   <trkpt lat="41.87604500147371" lon="12.503590002878015">
    <ele>46.650000000000006</ele>
   </trkpt>
   <trkpt lat="41.876380000000005" lon="12.503020000000001">
    <ele>46.07000000000001</ele>
   </trkpt>
   <trkpt lat="41.87644" lon="12.502910000000002">
    <ele>45.94</ele>
   </trkpt>
   <trkpt lat="41.876490000000004" lon="12.50295">
    <ele>45.87</ele>
   </trkpt>
   <trkpt lat="41.87661000000001" lon="12.502650000000001">
    <ele>45.01</ele>
   </trkpt>
   <trkpt lat="41.876780000000004" lon="12.502770000000002">
    <ele>44.38</ele>
   </trkpt>
   <trkpt lat="41.87707" lon="12.502870000000001">
    <ele>42.760000000000005</ele>
   </trkpt>
   <trkpt lat="41.87729" lon="12.502880000000001">
    <ele>41.580000000000005</ele>
   </trkpt>
   <trkpt lat="41.87749" lon="12.50285">
    <ele>39.92</ele>
   </trkpt>
   <trkpt lat="41.87776" lon="12.502770000000002">
    <ele>38.98</ele>
   </trkpt>
   <trkpt lat="41.878130000000006" lon="12.50252">
    <ele>37.26</ele>
   </trkpt>
   <trkpt lat="41.878330000000005" lon="12.50229">
    <ele>36.92</ele>
   </trkpt>
   <trkpt lat="41.87857" lon="12.501890000000001">
    <ele>36.56</ele>
   </trkpt>
   <trkpt lat="41.879070000000006" lon="12.50098">
    <ele>36.71</ele>
   </trkpt>
   <trkpt lat="41.879070000000006" lon="12.501000000000001">
    <ele>36.71</ele>
   </trkpt>
   <trkpt lat="41.879540000000006" lon="12.50046">
    <ele>36.980000000000004</ele>
   </trkpt>
   <trkpt lat="41.879760000000005" lon="12.50018">
    <ele>36.96</ele>
   </trkpt>
   <trkpt lat="41.88036666823767" lon="12.499753341440547">
    <ele>36.51</ele>
   </trkpt>
   <trkpt lat="41.880973334896126" lon="12.49932667477977">
    <ele>36.43000000000001</ele>
   </trkpt>
   <trkpt lat="41.88158000000001" lon="12.4989">
    <ele>35.980000000000004</ele>
   </trkpt>
   <trkpt lat="41.88154" lon="12.49881">
    <ele>36.27</ele>
   </trkpt>
   <trkpt lat="41.881330000000005" lon="12.498940000000001">
    <ele>36.79</ele>
   </trkpt>
   <trkpt lat="41.88154" lon="12.49881">
    <ele>36.27</ele>
   </trkpt>
   <trkpt lat="41.88158000000001" lon="12.4989">
    <ele>35.78000000000001</ele>
   </trkpt>
   <trkpt lat="41.88196000000001" lon="12.498890000000001">
    <ele>35.61</ele>
   </trkpt>
   <trkpt lat="41.88206" lon="12.49877">
    <ele>34.940000000000005</ele>
   </trkpt>
   <trkpt lat="41.88206" lon="12.498000000000001">
    <ele>34.13</ele>
   </trkpt>
   <trkpt lat="41.88150000068788" lon="12.497604996546116">
    <ele>33.77</ele>
   </trkpt>
   <trkpt lat="41.88094" lon="12.49721">
    <ele>32.95</ele>
   </trkpt>
   <trkpt lat="41.880280000000006" lon="12.49671">
    <ele>31.17</ele>
   </trkpt>
   <trkpt lat="41.87986" lon="12.496210000000001">
    <ele>29.0</ele>
   </trkpt>
   <trkpt lat="41.879830000000005" lon="12.496160000000001">
    <ele>28.880000000000003</ele>
   </trkpt>
   <trkpt lat="41.879810000000006" lon="12.496160000000001">
    <ele>28.880000000000003</ele>
   </trkpt>
   <trkpt lat="41.87973" lon="12.49605">
    <ele>28.78</ele>
   </trkpt>
   <trkpt lat="41.87959" lon="12.49591">
    <ele>28.32</ele>
   </trkpt>
   <trkpt lat="41.879780000000004" lon="12.495680000000002">
    <ele>28.46</ele>
   </trkpt>
   <trkpt lat="41.879900000000006" lon="12.49549">
    <ele>28.46</ele>
   </trkpt>
   <trkpt lat="41.87995" lon="12.49544">
    <ele>28.430000000000003</ele>
   </trkpt>
   <trkpt lat="41.880320000000005" lon="12.49525">
    <ele>28.110000000000003</ele>
   </trkpt>
   <trkpt lat="41.88056" lon="12.49502">
    <ele>28.040000000000003</ele>
   </trkpt>
   <trkpt lat="41.88062" lon="12.49454">
    <ele>27.71</ele>
   </trkpt>
   <trkpt lat="41.881025001982245" lon="12.49386000434919">
    <ele>27.650000000000002</ele>
   </trkpt>
   <trkpt lat="41.88143" lon="12.49318">
    <ele>27.66</ele>
   </trkpt>
   <trkpt lat="41.881400000000006" lon="12.493100000000002">
    <ele>27.66</ele>
   </trkpt>
   <trkpt lat="41.88154" lon="12.492890000000001">
    <ele>27.590000000000003</ele>
   </trkpt>
   <trkpt lat="41.88190500138025" lon="12.492300003579777">
    <ele>27.340000000000003</ele>
   </trkpt>
   <trkpt lat="41.882270000000005" lon="12.491710000000001">
    <ele>27.250000000000004</ele>
   </trkpt>
   <trkpt lat="41.882650000000005" lon="12.49103">
    <ele>27.17</ele>
   </trkpt>
   <trkpt lat="41.88270000000001" lon="12.491010000000001">
    <ele>27.17</ele>
   </trkpt>
   <trkpt lat="41.88290000000001" lon="12.4907">
    <ele>27.070000000000004</ele>
   </trkpt>
   <trkpt lat="41.88290000000001" lon="12.490580000000001">
    <ele>27.070000000000004</ele>
   </trkpt>
   <trkpt lat="41.88288" lon="12.490390000000001">
    <ele>27.090000000000003</ele>
   </trkpt>
   <trkpt lat="41.88324" lon="12.490100000000002">
    <ele>27.180000000000003</ele>
   </trkpt>
   <trkpt lat="41.883230000000005" lon="12.49004">
    <ele>27.180000000000003</ele>
   </trkpt>
   <trkpt lat="41.883300000000006" lon="12.48999">
    <ele>27.28</ele>
   </trkpt>
   <trkpt lat="41.883590000000005" lon="12.489630000000002">
    <ele>27.450000000000003</ele>
   </trkpt>
   <trkpt lat="41.883660000000006" lon="12.489450000000001">
    <ele>27.48</ele>
   </trkpt>
   <trkpt lat="41.88393000000001" lon="12.489080000000001">
    <ele>27.680000000000003</ele>
   </trkpt>
   <trkpt lat="41.883970000000005" lon="12.488980000000002">
    <ele>27.720000000000002</ele>
   </trkpt>
   <trkpt lat="41.88394" lon="12.48891">
    <ele>27.720000000000002</ele>
   </trkpt>
   <trkpt lat="41.884190000000004" lon="12.48854">
    <ele>27.46</ele>
   </trkpt>
   <trkpt lat="41.88409" lon="12.48831">
    <ele>27.55</ele>
   </trkpt>
   <trkpt lat="41.88402000000001" lon="12.487940000000002">
    <ele>28.020000000000003</ele>
   </trkpt>
   <trkpt lat="41.884060000000005" lon="12.487530000000001">
    <ele>28.690000000000005</ele>
   </trkpt>
   <trkpt lat="41.88411000000001" lon="12.487390000000001">
    <ele>28.87</ele>
   </trkpt>
   <trkpt lat="41.88429" lon="12.48699">
    <ele>29.6</ele>
   </trkpt>
   <trkpt lat="41.88480000316855" lon="12.486125007035158">
    <ele>32.53</ele>
   </trkpt>
   <trkpt lat="41.885310000000004" lon="12.48526">
    <ele>36.27</ele>
   </trkpt>
   <trkpt lat="41.88537" lon="12.48526">
    <ele>36.27</ele>
   </trkpt>
   <trkpt lat="41.88542" lon="12.485190000000001">
    <ele>36.27</ele>
   </trkpt>
   <trkpt lat="41.885870000000004" lon="12.484430000000001">
    <ele>36.24</ele>
   </trkpt>
   <trkpt lat="41.885940000000005" lon="12.48431">
    <ele>36.24</ele>
   </trkpt>
   <trkpt lat="41.885920000000006" lon="12.484240000000002">
    <ele>36.24</ele>
   </trkpt>
   <trkpt lat="41.886300000000006" lon="12.483600000000001">
    <ele>33.17</ele>
   </trkpt>
   <trkpt lat="41.88678" lon="12.482940000000001">
    <ele>29.41</ele>
   </trkpt>
   <trkpt lat="41.88714" lon="12.482500000000002">
    <ele>27.020000000000003</ele>
   </trkpt>
   <trkpt lat="41.887190000000004" lon="12.482500000000002">
    <ele>27.020000000000003</ele>
   </trkpt>
   <trkpt lat="41.887280000000004" lon="12.48258">
    <ele>26.53</ele>
   </trkpt>
   <trkpt lat="41.887420000000006" lon="12.48235">
    <ele>26.51</ele>
   </trkpt>
   <trkpt lat="41.88741" lon="12.482320000000001">
    <ele>26.51</ele>
   </trkpt>
   <trkpt lat="41.88771000115965" lon="12.48180000246483">
    <ele>23.680000000000003</ele>
   </trkpt>
   <trkpt lat="41.88801" lon="12.481280000000002">
    <ele>22.12</ele>
   </trkpt>
   <trkpt lat="41.888070000000006" lon="12.48131">
    <ele>22.05</ele>
   </trkpt>
   <trkpt lat="41.888180000000006" lon="12.48113">
    <ele>20.96</ele>
   </trkpt>
   <trkpt lat="41.888200000000005" lon="12.48103">
    <ele>20.89</ele>
   </trkpt>
   <trkpt lat="41.88826" lon="12.480950000000002">
    <ele>21.96</ele>
   </trkpt>
   <trkpt lat="41.888540000000006" lon="12.480780000000001">
    <ele>23.32</ele>
   </trkpt>
   <trkpt lat="41.888560000000005" lon="12.480620000000002">
    <ele>23.680000000000003</ele>
   </trkpt>
   <trkpt lat="41.888600000000004" lon="12.480550000000001">
    <ele>23.810000000000002</ele>
   </trkpt>
   <trkpt lat="41.8887" lon="12.480490000000001">
    <ele>23.810000000000002</ele>
   </trkpt>
   <trkpt lat="41.888980000000004" lon="12.48046">
    <ele>24.39</ele>
   </trkpt>
   <trkpt lat="41.88899000000001" lon="12.48033">
    <ele>24.330000000000002</ele>
   </trkpt>
   <trkpt lat="41.88904" lon="12.48032">
    <ele>24.07</ele>
   </trkpt>
   <trkpt lat="41.889030000000005" lon="12.480210000000001">
    <ele>23.91</ele>
   </trkpt>
   <trkpt lat="41.88906" lon="12.480200000000002">
    <ele>23.94</ele>
   </trkpt>
   <trkpt lat="41.88906" lon="12.48018">
    <ele>23.94</ele>
   </trkpt>
   <trkpt lat="41.88913500428659" lon="12.479185001271425">
    <ele>23.919999999999998</ele>
   </trkpt>
   <trkpt lat="41.889210000000006" lon="12.478190000000001">
    <ele>23.770000000000003</ele>
   </trkpt>
   <trkpt lat="41.88937000000001" lon="12.477860000000002">
    <ele>22.580000000000002</ele>
   </trkpt>
   <trkpt lat="41.889410000000005" lon="12.477590000000001">
    <ele>22.17</ele>
   </trkpt>
   <trkpt lat="41.889540000000004" lon="12.47722">
    <ele>21.77</ele>
   </trkpt>
   <trkpt lat="41.889610000000005" lon="12.477160000000001">
    <ele>21.550000000000004</ele>
   </trkpt>
   <trkpt lat="41.88967" lon="12.477160000000001">
    <ele>17.400000000000002</ele>
   </trkpt>
   <trkpt lat="41.88969" lon="12.477120000000001">
    <ele>17.400000000000002</ele>
   </trkpt>
   <trkpt lat="41.889925002230044" lon="12.476400002705663">
    <ele>15.89</ele>
   </trkpt>
   <trkpt lat="41.89016" lon="12.47568">
    <ele>14.8</ele>
   </trkpt>
   <trkpt lat="41.89041" lon="12.4746">
    <ele>16.17</ele>
   </trkpt>
   <trkpt lat="41.890440000000005" lon="12.474570000000002">
    <ele>16.560000000000002</ele>
   </trkpt>
   <trkpt lat="41.89045" lon="12.474520000000002">
    <ele>16.560000000000002</ele>
   </trkpt>
   <trkpt lat="41.890510000000006" lon="12.474530000000001">
    <ele>26.79</ele>
   </trkpt>
   <trkpt lat="41.89045" lon="12.474520000000002">
    <ele>16.560000000000002</ele>
   </trkpt>
   <trkpt lat="41.89049000000001" lon="12.47432">
    <ele>15.72</ele>
   </trkpt>
   <trkpt lat="41.89056000160435" lon="12.473715000519041">
    <ele>15.510000000000002</ele>
   </trkpt>
   <trkpt lat="41.89063" lon="12.47311">
    <ele>15.18</ele>
   </trkpt>
   <trkpt lat="41.890730000000005" lon="12.472650000000002">
    <ele>14.940000000000001</ele>
   </trkpt>
   <trkpt lat="41.890910000000005" lon="12.472080000000002">
    <ele>15.430000000000001</ele>
   </trkpt>
   <trkpt lat="41.89106" lon="12.471710000000002">
    <ele>15.780000000000003</ele>
   </trkpt>
   <trkpt lat="41.89121" lon="12.471400000000001">
    <ele>16.240000000000002</ele>
   </trkpt>
   <trkpt lat="41.891490000000005" lon="12.470960000000002">
    <ele>16.68</ele>
   </trkpt>
   <trkpt lat="41.89195" lon="12.470310000000001">
    <ele>17.36</ele>
   </trkpt>
   <trkpt lat="41.892010000000006" lon="12.47028">
    <ele>17.380000000000003</ele>
   </trkpt>
   <trkpt lat="41.89208" lon="12.470210000000002">
    <ele>14.4</ele>
   </trkpt>
   <trkpt lat="41.89227" lon="12.469970000000002">
    <ele>14.010000000000002</ele>
   </trkpt>
   <trkpt lat="41.89231" lon="12.469970000000002">
    <ele>14.010000000000002</ele>
   </trkpt>
   <trkpt lat="41.89253" lon="12.469660000000001">
    <ele>14.22</ele>
   </trkpt>
   <trkpt lat="41.89304000338298" lon="12.469033343370143">
    <ele>14.38</ele>
   </trkpt>
   <trkpt lat="41.893550003359124" lon="12.468406676732943">
    <ele>14.290000000000001</ele>
   </trkpt>
   <trkpt lat="41.89406" lon="12.467780000000001">
    <ele>14.300000000000002</ele>
   </trkpt>
   <trkpt lat="41.894390000925355" lon="12.467330002261004">
    <ele>14.31</ele>
   </trkpt>
   <trkpt lat="41.89472000000001" lon="12.466880000000002">
    <ele>14.370000000000001</ele>
   </trkpt>
   <trkpt lat="41.89518333615232" lon="12.466310008269806">
    <ele>14.350000000000001</ele>
   </trkpt>
   <trkpt lat="41.895646669486005" lon="12.465740008269458">
    <ele>14.34</ele>
   </trkpt>
   <trkpt lat="41.89611" lon="12.46517">
    <ele>14.4</ele>
   </trkpt>
   <trkpt lat="41.89636" lon="12.46493">
    <ele>14.39</ele>
   </trkpt>
   <trkpt lat="41.89705500124316" lon="12.464385005966474">
    <ele>14.470000000000002</ele>
   </trkpt>
   <trkpt lat="41.89775" lon="12.463840000000001">
    <ele>14.39</ele>
   </trkpt>
   <trkpt lat="41.89853" lon="12.463260000000002">
    <ele>14.48</ele>
   </trkpt>
   <trkpt lat="41.898830000000004" lon="12.463090000000001">
    <ele>14.600000000000001</ele>
   </trkpt>
   <trkpt lat="41.899150000000006" lon="12.462950000000001">
    <ele>15.240000000000002</ele>
   </trkpt>
   <trkpt lat="41.89913000000001" lon="12.46288">
    <ele>15.240000000000002</ele>
   </trkpt>
   <trkpt lat="41.899300000000004" lon="12.46283">
    <ele>20.310000000000002</ele>
   </trkpt>
   <trkpt lat="41.89947" lon="12.462810000000001">
    <ele>22.26</ele>
   </trkpt>
   <trkpt lat="41.89947" lon="12.46277">
    <ele>22.26</ele>
   </trkpt>
   <trkpt lat="41.89959" lon="12.462760000000001">
    <ele>22.53</ele>
   </trkpt>
   <trkpt lat="41.89965" lon="12.46278">
    <ele>22.98</ele>
   </trkpt>
   <trkpt lat="41.89994" lon="12.462790000000002">
    <ele>25.290000000000003</ele>
   </trkpt>
   <trkpt lat="41.89994" lon="12.46269">
    <ele>25.650000000000002</ele>
   </trkpt>
   <trkpt lat="41.8999" lon="12.462670000000001">
    <ele>25.650000000000002</ele>
   </trkpt>
   <trkpt lat="41.899820000000005" lon="12.462570000000001">
    <ele>26.060000000000002</ele>
   </trkpt>
   <trkpt lat="41.899770000000004" lon="12.46235">
    <ele>26.45</ele>
   </trkpt>
   <trkpt lat="41.89976" lon="12.462290000000001">
    <ele>26.45</ele>
   </trkpt>
   <trkpt lat="41.899820000000005" lon="12.462000000000002">
    <ele>27.650000000000002</ele>
   </trkpt>
   <trkpt lat="41.89987" lon="12.46194">
    <ele>27.650000000000002</ele>
   </trkpt>
   <trkpt lat="41.900380000000006" lon="12.46156">
    <ele>29.05</ele>
   </trkpt>
   <trkpt lat="41.900840000433305" lon="12.46119500274413">
    <ele>28.790000000000003</ele>
   </trkpt>
   <trkpt lat="41.901300000000006" lon="12.460830000000001">
    <ele>28.200000000000003</ele>
   </trkpt>
   <trkpt lat="41.90147" lon="12.460680000000002">
    <ele>27.87</ele>
   </trkpt>
   <trkpt lat="41.901545005253595" lon="12.45958000122131">
    <ele>29.120000000000005</ele>
   </trkpt>
   <trkpt lat="41.90162" lon="12.458480000000002">
    <ele>28.770000000000003</ele>
   </trkpt>
   <trkpt lat="41.90158" lon="12.45827">
    <ele>28.630000000000003</ele>
   </trkpt>
   <trkpt lat="41.901340000000005" lon="12.458">
    <ele>29.17</ele>
   </trkpt>
   <trkpt lat="41.901250000000005" lon="12.457820000000002">
    <ele>29.19</ele>
   </trkpt>
   <trkpt lat="41.90117" lon="12.457580000000002">
    <ele>29.150000000000002</ele>
   </trkpt>
   <trkpt lat="41.90113" lon="12.457160000000002">
    <ele>29.200000000000003</ele>
   </trkpt>
   <trkpt lat="41.901180000000004" lon="12.456690000000002">
    <ele>29.490000000000002</ele>
   </trkpt>
   <trkpt lat="41.90117" lon="12.45663">
    <ele>29.490000000000002</ele>
   </trkpt>
   <trkpt lat="41.90110000000001" lon="12.456600000000002">
    <ele>30.080000000000002</ele>
   </trkpt>
   <trkpt lat="41.900360000000006" lon="12.456600000000002">
    <ele>30.950000000000003</ele>
   </trkpt>
   <trkpt lat="41.900355002440364" lon="12.455849999994006">
    <ele>31.240000000000002</ele>
   </trkpt>
   <trkpt lat="41.90035" lon="12.455100000000002">
    <ele>32.5</ele>
   </trkpt>
   <trkpt lat="41.90032" lon="12.454920000000001">
    <ele>32.5</ele>
   </trkpt>
   <trkpt lat="41.900180000000006" lon="12.454540000000001">
    <ele>33.14</ele>
   </trkpt>
   <trkpt lat="41.90021" lon="12.454250000000002">
    <ele>33.63</ele>
   </trkpt>
   <trkpt lat="41.899890000000006" lon="12.454400000000001">
    <ele>33.72</ele>
   </trkpt>
   <trkpt lat="41.89987" lon="12.45437">
    <ele>33.760000000000005</ele>
   </trkpt>
   <trkpt lat="41.899840000000005" lon="12.45437">
    <ele>33.800000000000004</ele>
   </trkpt>
   <trkpt lat="41.899820000000005" lon="12.45429">
    <ele>33.800000000000004</ele>
   </trkpt>
   <trkpt lat="41.899240000000006" lon="12.45451">
    <ele>34.42000000000001</ele>
   </trkpt>
  </trkseg>
 </trk>
</gpx>
